start=new Date('2022-01-21T00:00:00.000Z').valueOf();
sats=[{"INCLINATION":"53.0547","SITE":"AFETR","PERIAPSIS":"545.916","TLE_LINE2":"2 47880  53.0547 216.4513 0001885  52.7580 307.3581 15.06397331 48584","CLASSIFICATION_TYPE":"U","MEAN_ELEMENT_THEORY":"SGP4","TLE_LINE1":"1 47880U 21021W   22020.53443375  .00002108  00000-0  16037-3 0  9994","MEAN_MOTION":"15.06397331","MEAN_MOTION_DOT":"0.00002108","BSTAR":"0.00016037000000","GP_ID":"194259836","CENTER_NAME":"EARTH","LAUNCH_DATE":"2021-03-14","RCS_SIZE":"LARGE","ARG_OF_PERICENTER":"52.7580","REV_AT_EPOCH":"4858","FILE":"3278533","RA_OF_ASC_NODE":"216.4513","OBJECT_TYPE":"PAYLOAD","COUNTRY_CODE":"US","SEMIMAJOR_AXIS":"6925.357","PERIOD":"95.592","TIME_SYSTEM":"UTC","ELEMENT_SET_NO":"999","OBJECT_ID":"2021-021W","MEAN_MOTION_DDOT":"0.0000000000000","MEAN_ANOMALY":"307.3581","REF_FRAME":"TEME","EPHEMERIS_TYPE":"0","OBJECT_NAME":"STARLINK-2337","APOAPSIS":"548.527","DECAY_DATE":null,"EPOCH":"2022-01-20T12:49:35.076000","NORAD_CAT_ID":"47880","ECCENTRICITY":"0.00018850"},{"SEMIMAJOR_AXIS":"6925.371","COUNTRY_CODE":"US","PERIOD":"95.593","TIME_SYSTEM":"UTC","LAUNCH_DATE":"2021-03-14","RCS_SIZE":"LARGE","ARG_OF_PERICENTER":"77.4031","CENTER_NAME":"EARTH","OBJECT_TYPE":"PAYLOAD","RA_OF_ASC_NODE":"216.6457","REV_AT_EPOCH":"4854","FILE":"3278533","MEAN_MOTION_DOT":"0.00001079","BSTAR":"0.00009132800000","GP_ID":"194260591","CLASSIFICATION_TYPE":"U","TLE_LINE2":"2 47881  53.0597 216.6457 0002132  77.4031 282.7196 15.06392601 48549","MEAN_ELEMENT_THEORY":"SGP4","INCLINATION":"53.0597","SITE":"AFETR","PERIAPSIS":"545.760","MEAN_MOTION":"15.06392601","TLE_LINE1":"1 47881U 21021X   22020.49388880  .00001079  00000-0  91328-4 0  9992","APOAPSIS":"548.713","NORAD_CAT_ID":"47881","ECCENTRICITY":"0.00021320","DECAY_DATE":null,"EPOCH":"2022-01-20T11:51:11.992320","OBJECT_NAME":"STARLINK-2339","EPHEMERIS_TYPE":"0","OBJECT_ID":"2021-021X","MEAN_MOTION_DDOT":"0.0000000000000","ELEMENT_SET_NO":"999","MEAN_ANOMALY":"282.7196","REF_FRAME":"TEME"},{"BSTAR":"0.00009251000000","GP_ID":"194260843","MEAN_MOTION_DOT":"0.00001096","MEAN_MOTION":"15.06392700","TLE_LINE1":"1 47882U 21021Y   22020.53535700  .00001096  00000-0  92510-4 0  9996","TLE_LINE2":"2 47882  53.0546 206.4681 0002102  79.7623 280.3603 15.06392700 48894","MEAN_ELEMENT_THEORY":"SGP4","CLASSIFICATION_TYPE":"U","INCLINATION":"53.0546","SITE":"AFETR","PERIAPSIS":"545.780","PERIOD":"95.593","TIME_SYSTEM":"UTC","SEMIMAJOR_AXIS":"6925.371","COUNTRY_CODE":"US","OBJECT_TYPE":"PAYLOAD","RA_OF_ASC_NODE":"206.4681","REV_AT_EPOCH":"4889","FILE":"3278533","LAUNCH_DATE":"2021-03-14","ARG_OF_PERICENTER":"79.7623","RCS_SIZE":"LARGE","CENTER_NAME":"EARTH","OBJECT_NAME":"STARLINK-2340","EPHEMERIS_TYPE":"0","MEAN_ANOMALY":"280.3603","REF_FRAME":"TEME","OBJECT_ID":"2021-021Y","MEAN_MOTION_DDOT":"0.0000000000000","ELEMENT_SET_NO":"999","NORAD_CAT_ID":"47882","ECCENTRICITY":"0.00021020","DECAY_DATE":null,"EPOCH":"2022-01-20T12:50:54.844800","APOAPSIS":"548.692"},{"OBJECT_TYPE":"PAYLOAD","RA_OF_ASC_NODE":"210.4178","FILE":"3278610","REV_AT_EPOCH":"4821","RCS_SIZE":"LARGE","ARG_OF_PERICENTER":"79.1058","LAUNCH_DATE":"2021-03-14","CENTER_NAME":"EARTH","TIME_SYSTEM":"UTC","PERIOD":"95.593","SEMIMAJOR_AXIS":"6925.371","COUNTRY_CODE":"US","MEAN_MOTION":"15.06392606","TLE_LINE1":"1 47883U 21021Z   22020.77262865  .00001268  00000-0  10402-3 0  9992","CLASSIFICATION_TYPE":"U","TLE_LINE2":"2 47883  53.0531 210.4178 0002149  79.1058 281.0173 15.06392606 48213","MEAN_ELEMENT_THEORY":"SGP4","PERIAPSIS":"545.748","SITE":"AFETR","INCLINATION":"53.0531","BSTAR":"0.00010402000000","GP_ID":"194266463","MEAN_MOTION_DOT":"0.00001268","ECCENTRICITY":"0.00021490","NORAD_CAT_ID":"47883","EPOCH":"2022-01-20T18:32:35.115360","DECAY_DATE":null,"APOAPSIS":"548.724","REF_FRAME":"TEME","MEAN_ANOMALY":"281.0173","MEAN_MOTION_DDOT":"0.0000000000000","OBJECT_ID":"2021-021Z","ELEMENT_SET_NO":"999","OBJECT_NAME":"STARLINK-2342","EPHEMERIS_TYPE":"0"},{"EPHEMERIS_TYPE":"0","OBJECT_NAME":"STARLINK-2343","ELEMENT_SET_NO":"999","OBJECT_ID":"2021-021AA","MEAN_MOTION_DDOT":"0.0000000000000","MEAN_ANOMALY":"281.6128","REF_FRAME":"TEME","APOAPSIS":"548.753","DECAY_DATE":null,"EPOCH":"2022-01-20T19:43:36.386688","NORAD_CAT_ID":"47884","ECCENTRICITY":"0.00021360","MEAN_MOTION_DOT":"-0.00000884","GP_ID":"194269155","BSTAR":"-0.00004048100000","SITE":"AFETR","INCLINATION":"53.0549","PERIAPSIS":"545.794","MEAN_ELEMENT_THEORY":"SGP4","TLE_LINE2":"2 47884  53.0549 215.1853 0002136  78.5101 281.6128 15.06380461 48147","CLASSIFICATION_TYPE":"U","TLE_LINE1":"1 47884U 21021AA  22020.82194892 -.00000884  00000-0 -40481-4 0  9999","MEAN_MOTION":"15.06380461","COUNTRY_CODE":"US","SEMIMAJOR_AXIS":"6925.408","PERIOD":"95.593","TIME_SYSTEM":"UTC","CENTER_NAME":"EARTH","LAUNCH_DATE":"2021-03-14","RCS_SIZE":"LARGE","ARG_OF_PERICENTER":"78.5101","REV_AT_EPOCH":"4814","FILE":"3278721","OBJECT_TYPE":"PAYLOAD","RA_OF_ASC_NODE":"215.1853"},{"OBJECT_NAME":"STARLINK-2344","EPHEMERIS_TYPE":"0","OBJECT_ID":"2021-021AB","MEAN_MOTION_DDOT":"0.0000000000000","ELEMENT_SET_NO":"999","MEAN_ANOMALY":"286.1421","REF_FRAME":"TEME","APOAPSIS":"548.758","NORAD_CAT_ID":"47885","ECCENTRICITY":"0.00022220","DECAY_DATE":null,"EPOCH":"2022-01-20T13:12:49.279968","MEAN_MOTION_DOT":"0.00005650","BSTAR":"0.00039795000000","GP_ID":"194261092","TLE_LINE2":"2 47885  53.0531 221.3998 0002222  73.9813 286.1421 15.06398208 48675","CLASSIFICATION_TYPE":"U","MEAN_ELEMENT_THEORY":"SGP4","INCLINATION":"53.0531","SITE":"AFETR","PERIAPSIS":"545.680","MEAN_MOTION":"15.06398208","TLE_LINE1":"1 47885U 21021AB  22020.55057037  .00005650  00000-0  39795-3 0  9998","SEMIMAJOR_AXIS":"6925.354","COUNTRY_CODE":"US","PERIOD":"95.592","TIME_SYSTEM":"UTC","LAUNCH_DATE":"2021-03-14","RCS_SIZE":"LARGE","ARG_OF_PERICENTER":"73.9813","CENTER_NAME":"EARTH","RA_OF_ASC_NODE":"221.3998","OBJECT_TYPE":"PAYLOAD","REV_AT_EPOCH":"4867","FILE":"3278533"},{"LAUNCH_DATE":"2021-03-14","ARG_OF_PERICENTER":"75.7356","RCS_SIZE":"LARGE","CENTER_NAME":"EARTH","OBJECT_TYPE":"PAYLOAD","RA_OF_ASC_NODE":"211.4069","REV_AT_EPOCH":"4866","FILE":"3278533","SEMIMAJOR_AXIS":"6925.402","COUNTRY_CODE":"US","PERIOD":"95.593","TIME_SYSTEM":"UTC","TLE_LINE2":"2 47886  53.0547 211.4069 0002166  75.7356 284.3873 15.06382437 48668","CLASSIFICATION_TYPE":"U","MEAN_ELEMENT_THEORY":"SGP4","INCLINATION":"53.0547","SITE":"AFETR","PERIAPSIS":"545.767","MEAN_MOTION":"15.06382437","TLE_LINE1":"1 47886U 21021AC  22020.55055221  .00001253  00000-0  10306-3 0  9994","MEAN_MOTION_DOT":"0.00001253","BSTAR":"0.00010306000000","GP_ID":"194261344","APOAPSIS":"548.767","NORAD_CAT_ID":"47886","ECCENTRICITY":"0.00021660","DECAY_DATE":null,"EPOCH":"2022-01-20T13:12:47.710944","OBJECT_ID":"2021-021AC","MEAN_MOTION_DDOT":"0.0000000000000","ELEMENT_SET_NO":"999","MEAN_ANOMALY":"284.3873","REF_FRAME":"TEME","OBJECT_NAME":"STARLINK-2345","EPHEMERIS_TYPE":"0"},{"OBJECT_TYPE":"PAYLOAD","RA_OF_ASC_NODE":"215.4135","REV_AT_EPOCH":"4814","FILE":"3278721","LAUNCH_DATE":"2021-03-14","RCS_SIZE":"LARGE","ARG_OF_PERICENTER":"71.5480","CENTER_NAME":"EARTH","PERIOD":"95.593","TIME_SYSTEM":"UTC","SEMIMAJOR_AXIS":"6925.402","COUNTRY_CODE":"US","MEAN_MOTION":"15.06382705","TLE_LINE1":"1 47887U 21021AD  22020.77402031 -.00000901  00000-0 -41588-4 0  9992","TLE_LINE2":"2 47887  53.0523 215.4135 0002514  71.5480 288.5782 15.06382705 48146","CLASSIFICATION_TYPE":"U","MEAN_ELEMENT_THEORY":"SGP4","SITE":"AFETR","INCLINATION":"53.0523","PERIAPSIS":"545.526","BSTAR":"-0.00004158800000","GP_ID":"194269159","MEAN_MOTION_DOT":"-0.00000901","NORAD_CAT_ID":"47887","ECCENTRICITY":"0.00025140","DECAY_DATE":null,"EPOCH":"2022-01-20T18:34:35.354784","APOAPSIS":"549.008","MEAN_ANOMALY":"288.5782","REF_FRAME":"TEME","OBJECT_ID":"2021-021AD","MEAN_MOTION_DDOT":"0.0000000000000","ELEMENT_SET_NO":"999","OBJECT_NAME":"STARLINK-2346","EPHEMERIS_TYPE":"0"},{"APOAPSIS":"548.668","NORAD_CAT_ID":"47888","ECCENTRICITY":"0.00021060","DECAY_DATE":null,"EPOCH":"2022-01-20T12:45:35.839584","OBJECT_NAME":"STARLINK-2348","EPHEMERIS_TYPE":"0","OBJECT_ID":"2021-021AE","MEAN_MOTION_DDOT":"0.0000000000000","ELEMENT_SET_NO":"999","MEAN_ANOMALY":"285.5381","REF_FRAME":"TEME","SEMIMAJOR_AXIS":"6925.344","COUNTRY_CODE":"US","PERIOD":"95.592","TIME_SYSTEM":"UTC","LAUNCH_DATE":"2021-03-14","ARG_OF_PERICENTER":"74.5841","RCS_SIZE":"LARGE","CENTER_NAME":"EARTH","OBJECT_TYPE":"PAYLOAD","RA_OF_ASC_NODE":"206.4875","REV_AT_EPOCH":"4873","FILE":"3278533","MEAN_MOTION_DOT":"0.00002099","BSTAR":"0.00015976000000","GP_ID":"194259837","MEAN_ELEMENT_THEORY":"SGP4","TLE_LINE2":"2 47888  53.0532 206.4875 0002106  74.5841 285.5381 15.06401371 48737","CLASSIFICATION_TYPE":"U","INCLINATION":"53.0532","SITE":"AFETR","PERIAPSIS":"545.751","MEAN_MOTION":"15.06401371","TLE_LINE1":"1 47888U 21021AE  22020.53166481  .00002099  00000-0  15976-3 0  9992"},{"APOAPSIS":"548.671","EPOCH":"2022-01-20T13:01:32.522592","DECAY_DATE":null,"ECCENTRICITY":"0.00020350","NORAD_CAT_ID":"47889","ELEMENT_SET_NO":"999","MEAN_MOTION_DDOT":"0.0000000000000","OBJECT_ID":"2021-021AF","REF_FRAME":"TEME","MEAN_ANOMALY":"280.7960","EPHEMERIS_TYPE":"0","OBJECT_NAME":"STARLINK-2349","CENTER_NAME":"EARTH","ARG_OF_PERICENTER":"79.3258","RCS_SIZE":"LARGE","LAUNCH_DATE":"2021-03-14","FILE":"3278533","REV_AT_EPOCH":"4878","RA_OF_ASC_NODE":"206.4466","OBJECT_TYPE":"PAYLOAD","COUNTRY_CODE":"US","SEMIMAJOR_AXIS":"6925.396","TIME_SYSTEM":"UTC","PERIOD":"95.593","PERIAPSIS":"545.852","SITE":"AFETR","INCLINATION":"53.0537","TLE_LINE2":"2 47889  53.0537 206.4466 0002035  79.3258 280.7960 15.06384427 48782","CLASSIFICATION_TYPE":"U","MEAN_ELEMENT_THEORY":"SGP4","TLE_LINE1":"1 47889U 21021AF  22020.54273753  .00000761  00000-0  69993-4 0  9998","MEAN_MOTION":"15.06384427","MEAN_MOTION_DOT":"0.00000761","GP_ID":"194260592","BSTAR":"0.00006999300000"}];
